[{"OBJECT_NAME":"HYPERFIELD-1A","OBJECT_ID":"2024-149CY","EPOCH":"2026-03-09T18:21:25.814304","MEAN_MOTION":15.29681349,"ECCENTRICITY":0.00038648,"INCLINATION":97.3842,"RA_OF_ASC_NODE":149.5066,"ARG_OF_PERICENTER":313.7844,"MEAN_ANOMALY":46.3076,"EPHEMERIS_TYPE":0,"CLASSIFICATION_TYPE":"U","NORAD_CAT_ID":60562,"ELEMENT_SET_NO":999,"REV_AT_EPOCH":8683,"BSTAR":0.00030052114,"MEAN_MOTION_DOT":8.569e-5,"MEAN_MOTION_DDOT":0},{"OBJECT_NAME":"STARLINK-36550","OBJECT_ID":"2026-012C","EPOCH":"2026-03-09T23:35:57.401664","MEAN_MOTION":15.27600352,"ECCENTRICITY":0.00011637,"INCLINATION":42.9946,"RA_OF_ASC_NODE":313.02,"ARG_OF_PERICENTER":176.5131,"MEAN_ANOMALY":183.5729,"EPHEMERIS_TYPE":0,"CLASSIFICATION_TYPE":"U","NORAD_CAT_ID":67495,"ELEMENT_SET_NO":999,"REV_AT_EPOCH":780,"BSTAR":0.0012652762,"MEAN_MOTION_DOT":0.00034741,"MEAN_MOTION_DDOT":0}]
